ORBCOMM FM05            
1 25117U 97084F   24316.47780130  .00005677  00000+0  16712-2 0  9993
2 25117  45.0156 332.2359 0003132 251.7002 108.3509 14.44415741409118
ORBCOMM FM06            
1 25118U 97084G   24316.80252729  .00005854  00000+0  17162-2 0  9996
2 25118  45.0146 330.6959 0002812 269.9671 259.6736 14.44572467410105
ORBCOMM FM07            
1 25119U 97084H   24316.77414517  .00005424  00000+0  15976-2 0  9992
2 25119  45.0144 331.5053 0003401 238.7696 121.2822 14.44447470410087
ORBCOMM FM03            
1 25158U 98007B   24316.55216856  .00003988  00000+0  14714-2 0  9995
2 25158 107.9667  48.8287 0048823 268.7641  90.7904 14.33356178392986
ORBCOMM FM04            
1 25159U 98007C   24316.71546272  .00004051  00000+0  14890-2 0  9999
2 25159 107.9653  52.2310 0044468 266.0979  93.5076 14.33629273393154
ORBCOMM FM17            
1 25413U 98046A   24316.09803002  .00004945  00000+0  17975-2 0  9992
2 25413  44.9931 206.2217 0001553 199.9379 160.1407 14.34183213371851
ORBCOMM FM18            
1 25414U 98046B   24316.20500887  .00005119  00000+0  17470-2 0  9995
2 25414  44.9914 128.6742 0004612 247.9571 112.0787 14.37286361373041
ORBCOMM FM19            
1 25415U 98046C   24316.75175903  .00005076  00000+0  17386-2 0  9991
2 25415  44.9922 127.7504 0003575 238.6715 136.1828 14.37121002373112
