<?xml version="1.0" encoding="UTF-8"?>
<ndm xmlns:xsi="http://www.w3.org/2001/XMLSchema-instance" xsi:noNamespaceSchemaLocation="https://sanaregistry.org/r/ndmxml_unqualified/ndmxml-2.0.0-master-2.0.xsd">
<omm id="CCSDS_OMM_VERS" version="2.0">
<header><CREATION_DATE/><ORIGINATOR/></header><body><segment><metadata><OBJECT_NAME>ORBCOMM FM05</OBJECT_NAME><OBJECT_ID>1997-084F</OBJECT_ID><CENTER_NAME>EARTH</CENTER_NAME><REF_FRAME>TEME</REF_FRAME><TIME_SYSTEM>UTC</TIME_SYSTEM><MEAN_ELEMENT_THEORY>SGP4</MEAN_ELEMENT_THEORY></metadata><data><meanElements><EPOCH>2024-11-11T11:28:02.032320</EPOCH><MEAN_MOTION>14.44415741</MEAN_MOTION><ECCENTRICITY>.0003132</ECCENTRICITY><INCLINATION>45.0156</INCLINATION><RA_OF_ASC_NODE>332.2359</RA_OF_ASC_NODE><ARG_OF_PERICENTER>251.7002</ARG_OF_PERICENTER><MEAN_ANOMALY>108.3509</MEAN_ANOMALY></meanElements><tleParameters><EPHEMERIS_TYPE>0</EPHEMERIS_TYPE><CLASSIFICATION_TYPE>U</CLASSIFICATION_TYPE><NORAD_CAT_ID>25117</NORAD_CAT_ID><ELEMENT_SET_NO>999</ELEMENT_SET_NO><REV_AT_EPOCH>40911</REV_AT_EPOCH><BSTAR>.16712E-2</BSTAR><MEAN_MOTION_DOT>.5677E-4</MEAN_MOTION_DOT><MEAN_MOTION_DDOT>0</MEAN_MOTION_DDOT></tleParameters></data></segment></body></omm>
<omm id="CCSDS_OMM_VERS" version="2.0">
<header><CREATION_DATE/><ORIGINATOR/></header><body><segment><metadata><OBJECT_NAME>ORBCOMM FM06</OBJECT_NAME><OBJECT_ID>1997-084G</OBJECT_ID><CENTER_NAME>EARTH</CENTER_NAME><REF_FRAME>TEME</REF_FRAME><TIME_SYSTEM>UTC</TIME_SYSTEM><MEAN_ELEMENT_THEORY>SGP4</MEAN_ELEMENT_THEORY></metadata><data><meanElements><EPOCH>2024-11-11T19:15:38.357856</EPOCH><MEAN_MOTION>14.44572467</MEAN_MOTION><ECCENTRICITY>.0002812</ECCENTRICITY><INCLINATION>45.0146</INCLINATION><RA_OF_ASC_NODE>330.6959</RA_OF_ASC_NODE><ARG_OF_PERICENTER>269.9671</ARG_OF_PERICENTER><MEAN_ANOMALY>259.6736</MEAN_ANOMALY></meanElements><tleParameters><EPHEMERIS_TYPE>0</EPHEMERIS_TYPE><CLASSIFICATION_TYPE>U</CLASSIFICATION_TYPE><NORAD_CAT_ID>25118</NORAD_CAT_ID><ELEMENT_SET_NO>999</ELEMENT_SET_NO><REV_AT_EPOCH>41010</REV_AT_EPOCH><BSTAR>.17162E-2</BSTAR><MEAN_MOTION_DOT>.5854E-4</MEAN_MOTION_DOT><MEAN_MOTION_DDOT>0</MEAN_MOTION_DDOT></tleParameters></data></segment></body></omm>
<omm id="CCSDS_OMM_VERS" version="2.0">
<header><CREATION_DATE/><ORIGINATOR/></header><body><segment><metadata><OBJECT_NAME>ORBCOMM FM07</OBJECT_NAME><OBJECT_ID>1997-084H</OBJECT_ID><CENTER_NAME>EARTH</CENTER_NAME><REF_FRAME>TEME</REF_FRAME><TIME_SYSTEM>UTC</TIME_SYSTEM><MEAN_ELEMENT_THEORY>SGP4</MEAN_ELEMENT_THEORY></metadata><data><meanElements><EPOCH>2024-11-11T18:34:46.142688</EPOCH><MEAN_MOTION>14.44447470</MEAN_MOTION><ECCENTRICITY>.0003401</ECCENTRICITY><INCLINATION>45.0144</INCLINATION><RA_OF_ASC_NODE>331.5053</RA_OF_ASC_NODE><ARG_OF_PERICENTER>238.7696</ARG_OF_PERICENTER><MEAN_ANOMALY>121.2822</MEAN_ANOMALY></meanElements><tleParameters><EPHEMERIS_TYPE>0</EPHEMERIS_TYPE><CLASSIFICATION_TYPE>U</CLASSIFICATION_TYPE><NORAD_CAT_ID>25119</NORAD_CAT_ID><ELEMENT_SET_NO>999</ELEMENT_SET_NO><REV_AT_EPOCH>41008</REV_AT_EPOCH><BSTAR>.15976E-2</BSTAR><MEAN_MOTION_DOT>.5424E-4</MEAN_MOTION_DOT><MEAN_MOTION_DDOT>0</MEAN_MOTION_DDOT></tleParameters></data></segment></body></omm>
<omm id="CCSDS_OMM_VERS" version="2.0">
<header><CREATION_DATE/><ORIGINATOR/></header><body><segment><metadata><OBJECT_NAME>ORBCOMM FM03</OBJECT_NAME><OBJECT_ID>1998-007B</OBJECT_ID><CENTER_NAME>EARTH</CENTER_NAME><REF_FRAME>TEME</REF_FRAME><TIME_SYSTEM>UTC</TIME_SYSTEM><MEAN_ELEMENT_THEORY>SGP4</MEAN_ELEMENT_THEORY></metadata><data><meanElements><EPOCH>2024-11-11T13:15:07.363584</EPOCH><MEAN_MOTION>14.33356178</MEAN_MOTION><ECCENTRICITY>.0048823</ECCENTRICITY><INCLINATION>107.9667</INCLINATION><RA_OF_ASC_NODE>48.8287</RA_OF_ASC_NODE><ARG_OF_PERICENTER>268.7641</ARG_OF_PERICENTER><MEAN_ANOMALY>90.7904</MEAN_ANOMALY></meanElements><tleParameters><EPHEMERIS_TYPE>0</EPHEMERIS_TYPE><CLASSIFICATION_TYPE>U</CLASSIFICATION_TYPE><NORAD_CAT_ID>25158</NORAD_CAT_ID><ELEMENT_SET_NO>999</ELEMENT_SET_NO><REV_AT_EPOCH>39298</REV_AT_EPOCH><BSTAR>.14714E-2</BSTAR><MEAN_MOTION_DOT>.3988E-4</MEAN_MOTION_DOT><MEAN_MOTION_DDOT>0</MEAN_MOTION_DDOT></tleParameters></data></segment></body></omm>
<omm id="CCSDS_OMM_VERS" version="2.0">
<header><CREATION_DATE/><ORIGINATOR/></header><body><segment><metadata><OBJECT_NAME>ORBCOMM FM04</OBJECT_NAME><OBJECT_ID>1998-007C</OBJECT_ID><CENTER_NAME>EARTH</CENTER_NAME><REF_FRAME>TEME</REF_FRAME><TIME_SYSTEM>UTC</TIME_SYSTEM><MEAN_ELEMENT_THEORY>SGP4</MEAN_ELEMENT_THEORY></metadata><data><meanElements><EPOCH>2024-11-11T17:10:15.979008</EPOCH><MEAN_MOTION>14.33629273</MEAN_MOTION><ECCENTRICITY>.0044468</ECCENTRICITY><INCLINATION>107.9653</INCLINATION><RA_OF_ASC_NODE>52.2310</RA_OF_ASC_NODE><ARG_OF_PERICENTER>266.0979</ARG_OF_PERICENTER><MEAN_ANOMALY>93.5076</MEAN_ANOMALY></meanElements><tleParameters><EPHEMERIS_TYPE>0</EPHEMERIS_TYPE><CLASSIFICATION_TYPE>U</CLASSIFICATION_TYPE><NORAD_CAT_ID>25159</NORAD_CAT_ID><ELEMENT_SET_NO>999</ELEMENT_SET_NO><REV_AT_EPOCH>39315</REV_AT_EPOCH><BSTAR>.1489E-2</BSTAR><MEAN_MOTION_DOT>.4051E-4</MEAN_MOTION_DOT><MEAN_MOTION_DDOT>0</MEAN_MOTION_DDOT></tleParameters></data></segment></body></omm>
<omm id="CCSDS_OMM_VERS" version="2.0">
<header><CREATION_DATE/><ORIGINATOR/></header><body><segment><metadata><OBJECT_NAME>ORBCOMM FM17</OBJECT_NAME><OBJECT_ID>1998-046A</OBJECT_ID><CENTER_NAME>EARTH</CENTER_NAME><REF_FRAME>TEME</REF_FRAME><TIME_SYSTEM>UTC</TIME_SYSTEM><MEAN_ELEMENT_THEORY>SGP4</MEAN_ELEMENT_THEORY></metadata><data><meanElements><EPOCH>2024-11-11T02:21:09.793728</EPOCH><MEAN_MOTION>14.34183213</MEAN_MOTION><ECCENTRICITY>.0001553</ECCENTRICITY><INCLINATION>44.9931</INCLINATION><RA_OF_ASC_NODE>206.2217</RA_OF_ASC_NODE><ARG_OF_PERICENTER>199.9379</ARG_OF_PERICENTER><MEAN_ANOMALY>160.1407</MEAN_ANOMALY></meanElements><tleParameters><EPHEMERIS_TYPE>0</EPHEMERIS_TYPE><CLASSIFICATION_TYPE>U</CLASSIFICATION_TYPE><NORAD_CAT_ID>25413</NORAD_CAT_ID><ELEMENT_SET_NO>999</ELEMENT_SET_NO><REV_AT_EPOCH>37185</REV_AT_EPOCH><BSTAR>.17975E-2</BSTAR><MEAN_MOTION_DOT>.4945E-4</MEAN_MOTION_DOT><MEAN_MOTION_DDOT>0</MEAN_MOTION_DDOT></tleParameters></data></segment></body></omm>
<omm id="CCSDS_OMM_VERS" version="2.0">
<header><CREATION_DATE/><ORIGINATOR/></header><body><segment><metadata><OBJECT_NAME>ORBCOMM FM18</OBJECT_NAME><OBJECT_ID>1998-046B</OBJECT_ID><CENTER_NAME>EARTH</CENTER_NAME><REF_FRAME>TEME</REF_FRAME><TIME_SYSTEM>UTC</TIME_SYSTEM><MEAN_ELEMENT_THEORY>SGP4</MEAN_ELEMENT_THEORY></metadata><data><meanElements><EPOCH>2024-11-11T04:55:12.766368</EPOCH><MEAN_MOTION>14.37286361</MEAN_MOTION><ECCENTRICITY>.0004612</ECCENTRICITY><INCLINATION>44.9914</INCLINATION><RA_OF_ASC_NODE>128.6742</RA_OF_ASC_NODE><ARG_OF_PERICENTER>247.9571</ARG_OF_PERICENTER><MEAN_ANOMALY>112.0787</MEAN_ANOMALY></meanElements><tleParameters><EPHEMERIS_TYPE>0</EPHEMERIS_TYPE><CLASSIFICATION_TYPE>U</CLASSIFICATION_TYPE><NORAD_CAT_ID>25414</NORAD_CAT_ID><ELEMENT_SET_NO>999</ELEMENT_SET_NO><REV_AT_EPOCH>37304</REV_AT_EPOCH><BSTAR>.1747E-2</BSTAR><MEAN_MOTION_DOT>.5119E-4</MEAN_MOTION_DOT><MEAN_MOTION_DDOT>0</MEAN_MOTION_DDOT></tleParameters></data></segment></body></omm>
<omm id="CCSDS_OMM_VERS" version="2.0">
<header><CREATION_DATE/><ORIGINATOR/></header><body><segment><metadata><OBJECT_NAME>ORBCOMM FM19</OBJECT_NAME><OBJECT_ID>1998-046C</OBJECT_ID><CENTER_NAME>EARTH</CENTER_NAME><REF_FRAME>TEME</REF_FRAME><TIME_SYSTEM>UTC</TIME_SYSTEM><MEAN_ELEMENT_THEORY>SGP4</MEAN_ELEMENT_THEORY></metadata><data><meanElements><EPOCH>2024-11-11T18:02:31.980192</EPOCH><MEAN_MOTION>14.37121002</MEAN_MOTION><ECCENTRICITY>.0003575</ECCENTRICITY><INCLINATION>44.9922</INCLINATION><RA_OF_ASC_NODE>127.7504</RA_OF_ASC_NODE><ARG_OF_PERICENTER>238.6715</ARG_OF_PERICENTER><MEAN_ANOMALY>136.1828</MEAN_ANOMALY></meanElements><tleParameters><EPHEMERIS_TYPE>0</EPHEMERIS_TYPE><CLASSIFICATION_TYPE>U</CLASSIFICATION_TYPE><NORAD_CAT_ID>25415</NORAD_CAT_ID><ELEMENT_SET_NO>999</ELEMENT_SET_NO><REV_AT_EPOCH>37311</REV_AT_EPOCH><BSTAR>.17386E-2</BSTAR><MEAN_MOTION_DOT>.5076E-4</MEAN_MOTION_DOT><MEAN_MOTION_DDOT>0</MEAN_MOTION_DDOT></tleParameters></data></segment></body></omm>

</ndm>
